ONEWEB-0034             
1 45454U 20020AG  25288.82324562 -.00000104  00000+0 -32984-3 0  9998
2 45454  87.8827  69.7184 0001610  96.3806 263.7505 13.11418827270563
ONEWEB-0060             
1 45455U 20020AH  25288.79442031 -.00000250  00000+0 -74032-3 0  9999
2 45455  87.8816  69.7482 0000880 144.7689 215.3497 13.11415438270511
ONEWEB-0086             
1 45456U 20020AJ  25289.15472544  .00000708  00000+0  19608-2 0  9996
2 45456  87.8823  69.6492 0001667 123.6614 236.4673 13.11414609270629
ONEWEB-0088             
1 45457U 20020AK  25289.13268632 -.00000095  00000+0 -30510-3 0  9993
2 45457  87.8835  69.6029 0001541  92.4516 267.6788 13.11416841270559
ONEWEB-0102             
1 47258U 20100A   25289.02337352 -.00000353  00000+0 -10173-2 0  9996
2 47258  87.8965  39.1892 0001875 101.8521 258.2818 13.12442551232708
ONEWEB-0109             
1 47259U 20100B   25288.72653591 -.00000426  00000+0 -12195-2 0  9996
2 47259  87.8961  39.2161 0001838 103.6321 256.5012 13.12443944232492
ONEWEB-0110             
1 47260U 20100C   25289.05743845  .00000304  00000+0  80949-3 0  9993
2 47260  87.8959  39.1341 0001627 109.9473 250.1830 13.12444576232707
ONEWEB-0111             
1 47261U 20100D   25289.01202895 -.00000023  00000+0 -98712-4 0  9993
2 47261  87.8962  39.1606 0001760 101.2453 258.8873 13.12441771232534
ONEWEB-0114             
1 47262U 20100E   25289.04283784 -.00000197  00000+0 -58159-3 0  9995
2 47262  87.8963  39.1484 0002031  98.3703 261.7656 13.12444968232494
ONEWEB-0117             
1 47263U 20100F   25288.72977746 -.00000258  00000+0 -75112-3 0  9994
2 47263  87.8960  39.2084 0001653 101.7383 258.3931 13.12445115232461
ONEWEB-0118             
1 47264U 20100G   25289.06716758  .00000625  00000+0  17006-2 0  9990
2 47264  87.8960  39.1408 0001907  92.1330 268.0017 13.12444311232705
ONEWEB-0119             
1 47265U 20100H   25289.01850903 -.00000351  00000+0 -10100-2 0  9993
2 47265  87.8963  39.1878 0001862 101.8838 258.2499 13.12442071232673
ONEWEB-0120             
1 47266U 20100J   25289.04135523 -.00000194  00000+0 -57418-3 0  9990
2 47266  87.8962  39.1849 0001816 100.6533 259.4800 13.12444612232705
ONEWEB-0121             
1 47267U 20100K   25289.02986444 -.00000377  00000+0 -10836-2 0  9990
2 47267  87.8961  39.1531 0001643 106.1713 253.9596 13.12444413232612
ONEWEB-0122             
1 47268U 20100L   25289.02485760 -.00000443  00000+0 -12675-2 0  9993
2 47268  87.8959  39.1569 0001946 104.4796 255.6549 13.12441753232520
ONEWEB-0123             
1 47269U 20100M   25289.02013772 -.00000360  00000+0 -10358-2 0  9998
2 47269  87.8963  39.1857 0001777  97.7632 262.3698 13.12441364232664
ONEWEB-0124             
1 47270U 20100N   25289.00878527  .00000126  00000+0  31459-3 0  9999
2 47270  87.8963  39.1909 0001541 102.1742 257.9560 13.12441964232547
