[{"OBJECT_NAME":"ONEWEB-0034","OBJECT_ID":"2020-020AG","EPOCH":"2025-10-15T19:45:28.421568","MEAN_MOTION":13.11418827,"ECCENTRICITY":0.00016108,"INCLINATION":87.8827,"RA_OF_ASC_NODE":69.7184,"ARG_OF_PERICENTER":96.3806,"MEAN_ANOMALY":263.7505,"EPHEMERIS_TYPE":0,"CLASSIFICATION_TYPE":"U","NORAD_CAT_ID":45454,"ELEMENT_SET_NO":999,"REV_AT_EPOCH":27056,"BSTAR":-0.00032984192,"MEAN_MOTION_DOT":-1.04e-6,"MEAN_MOTION_DDOT":0},{"OBJECT_NAME":"ONEWEB-0060","OBJECT_ID":"2020-020AH","EPOCH":"2025-10-15T19:03:57.914784","MEAN_MOTION":13.11415438,"ECCENTRICITY":8.808e-5,"INCLINATION":87.8816,"RA_OF_ASC_NODE":69.7482,"ARG_OF_PERICENTER":144.7689,"MEAN_ANOMALY":215.3497,"EPHEMERIS_TYPE":0,"CLASSIFICATION_TYPE":"U","NORAD_CAT_ID":45455,"ELEMENT_SET_NO":999,"REV_AT_EPOCH":27051,"BSTAR":-0.00074031599,"MEAN_MOTION_DOT":-2.5e-6,"MEAN_MOTION_DDOT":0},{"OBJECT_NAME":"ONEWEB-0086","OBJECT_ID":"2020-020AJ","EPOCH":"2025-10-16T03:42:48.278016","MEAN_MOTION":13.11414609,"ECCENTRICITY":0.0001667,"INCLINATION":87.8823,"RA_OF_ASC_NODE":69.6492,"ARG_OF_PERICENTER":123.6614,"MEAN_ANOMALY":236.4673,"EPHEMERIS_TYPE":0,"CLASSIFICATION_TYPE":"U","NORAD_CAT_ID":45456,"ELEMENT_SET_NO":999,"REV_AT_EPOCH":27062,"BSTAR":0.0019608,"MEAN_MOTION_DOT":7.08e-6,"MEAN_MOTION_DDOT":0},{"OBJECT_NAME":"ONEWEB-0088","OBJECT_ID":"2020-020AK","EPOCH":"2025-10-16T03:11:04.098048","MEAN_MOTION":13.11416841,"ECCENTRICITY":0.0001541,"INCLINATION":87.8835,"RA_OF_ASC_NODE":69.6029,"ARG_OF_PERICENTER":92.4516,"MEAN_ANOMALY":267.6788,"EPHEMERIS_TYPE":0,"CLASSIFICATION_TYPE":"U","NORAD_CAT_ID":45457,"ELEMENT_SET_NO":999,"REV_AT_EPOCH":27055,"BSTAR":-0.0003051,"MEAN_MOTION_DOT":-9.5e-7,"MEAN_MOTION_DDOT":0},{"OBJECT_NAME":"ONEWEB-0102","OBJECT_ID":"2020-100A","EPOCH":"2025-10-16T00:33:39.472128","MEAN_MOTION":13.12442551,"ECCENTRICITY":0.0001875,"INCLINATION":87.8965,"RA_OF_ASC_NODE":39.1892,"ARG_OF_PERICENTER":101.8521,"MEAN_ANOMALY":258.2818,"EPHEMERIS_TYPE":0,"CLASSIFICATION_TYPE":"U","NORAD_CAT_ID":47258,"ELEMENT_SET_NO":999,"REV_AT_EPOCH":23270,"BSTAR":-0.0010173,"MEAN_MOTION_DOT":-3.53e-6,"MEAN_MOTION_DDOT":0},{"OBJECT_NAME":"ONEWEB-0109","OBJECT_ID":"2020-100B","EPOCH":"2025-10-15T17:26:12.702624","MEAN_MOTION":13.12443944,"ECCENTRICITY":0.00018382,"INCLINATION":87.8961,"RA_OF_ASC_NODE":39.2161,"ARG_OF_PERICENTER":103.6321,"MEAN_ANOMALY":256.5012,"EPHEMERIS_TYPE":0,"CLASSIFICATION_TYPE":"U","NORAD_CAT_ID":47259,"ELEMENT_SET_NO":999,"REV_AT_EPOCH":23249,"BSTAR":-0.0012194906,"MEAN_MOTION_DOT":-4.26e-6,"MEAN_MOTION_DDOT":0},{"OBJECT_NAME":"ONEWEB-0110","OBJECT_ID":"2020-100C","EPOCH":"2025-10-16T01:22:42.682080","MEAN_MOTION":13.12444576,"ECCENTRICITY":0.0001627,"INCLINATION":87.8959,"RA_OF_ASC_NODE":39.1341,"ARG_OF_PERICENTER":109.9473,"MEAN_ANOMALY":250.183,"EPHEMERIS_TYPE":0,"CLASSIFICATION_TYPE":"U","NORAD_CAT_ID":47260,"ELEMENT_SET_NO":999,"REV_AT_EPOCH":23270,"BSTAR":0.00080949,"MEAN_MOTION_DOT":3.04e-6,"MEAN_MOTION_DDOT":0},{"OBJECT_NAME":"ONEWEB-0111","OBJECT_ID":"2020-100D","EPOCH":"2025-10-16T00:17:19.301280","MEAN_MOTION":13.12441771,"ECCENTRICITY":0.000176,"INCLINATION":87.8962,"RA_OF_ASC_NODE":39.1606,"ARG_OF_PERICENTER":101.2453,"MEAN_ANOMALY":258.8873,"EPHEMERIS_TYPE":0,"CLASSIFICATION_TYPE":"U","NORAD_CAT_ID":47261,"ELEMENT_SET_NO":999,"REV_AT_EPOCH":23253,"BSTAR":-9.8712e-5,"MEAN_MOTION_DOT":-2.3e-7,"MEAN_MOTION_DDOT":0},{"OBJECT_NAME":"ONEWEB-0114","OBJECT_ID":"2020-100E","EPOCH":"2025-10-16T01:01:41.189376","MEAN_MOTION":13.12444968,"ECCENTRICITY":0.0002031,"INCLINATION":87.8963,"RA_OF_ASC_NODE":39.1484,"ARG_OF_PERICENTER":98.3703,"MEAN_ANOMALY":261.7656,"EPHEMERIS_TYPE":0,"CLASSIFICATION_TYPE":"U","NORAD_CAT_ID":47262,"ELEMENT_SET_NO":999,"REV_AT_EPOCH":23249,"BSTAR":-0.00058159,"MEAN_MOTION_DOT":-1.97e-6,"MEAN_MOTION_DDOT":0},{"OBJECT_NAME":"ONEWEB-0117","OBJECT_ID":"2020-100F","EPOCH":"2025-10-15T17:30:52.772544","MEAN_MOTION":13.12445115,"ECCENTRICITY":0.0001653,"INCLINATION":87.896,"RA_OF_ASC_NODE":39.2084,"ARG_OF_PERICENTER":101.7383,"MEAN_ANOMALY":258.3931,"EPHEMERIS_TYPE":0,"CLASSIFICATION_TYPE":"U","NORAD_CAT_ID":47263,"ELEMENT_SET_NO":999,"REV_AT_EPOCH":23246,"BSTAR":-0.00075111693,"MEAN_MOTION_DOT":-2.58e-6,"MEAN_MOTION_DDOT":0},{"OBJECT_NAME":"ONEWEB-0118","OBJECT_ID":"2020-100G","EPOCH":"2025-10-16T01:36:43.278912","MEAN_MOTION":13.12444311,"ECCENTRICITY":0.0001907,"INCLINATION":87.896,"RA_OF_ASC_NODE":39.1408,"ARG_OF_PERICENTER":92.133,"MEAN_ANOMALY":268.0017,"EPHEMERIS_TYPE":0,"CLASSIFICATION_TYPE":"U","NORAD_CAT_ID":47264,"ELEMENT_SET_NO":999,"REV_AT_EPOCH":23270,"BSTAR":0.0017006,"MEAN_MOTION_DOT":6.25e-6,"MEAN_MOTION_DDOT":0},{"OBJECT_NAME":"ONEWEB-0119","OBJECT_ID":"2020-100H","EPOCH":"2025-10-16T00:26:39.180192","MEAN_MOTION":13.12442071,"ECCENTRICITY":0.0001862,"INCLINATION":87.8963,"RA_OF_ASC_NODE":39.1878,"ARG_OF_PERICENTER":101.8838,"MEAN_ANOMALY":258.2499,"EPHEMERIS_TYPE":0,"CLASSIFICATION_TYPE":"U","NORAD_CAT_ID":47265,"ELEMENT_SET_NO":999,"REV_AT_EPOCH":23267,"BSTAR":-0.00101,"MEAN_MOTION_DOT":-3.51e-6,"MEAN_MOTION_DDOT":0},{"OBJECT_NAME":"ONEWEB-0120","OBJECT_ID":"2020-100J","EPOCH":"2025-10-16T00:59:33.091872","MEAN_MOTION":13.12444612,"ECCENTRICITY":0.0001816,"INCLINATION":87.8962,"RA_OF_ASC_NODE":39.1849,"ARG_OF_PERICENTER":100.6533,"MEAN_ANOMALY":259.48,"EPHEMERIS_TYPE":0,"CLASSIFICATION_TYPE":"U","NORAD_CAT_ID":47266,"ELEMENT_SET_NO":999,"REV_AT_EPOCH":23270,"BSTAR":-0.00057418,"MEAN_MOTION_DOT":-1.94e-6,"MEAN_MOTION_DDOT":0},{"OBJECT_NAME":"ONEWEB-0121","OBJECT_ID":"2020-100K","EPOCH":"2025-10-16T00:43:00.287616","MEAN_MOTION":13.12444413,"ECCENTRICITY":0.0001643,"INCLINATION":87.8961,"RA_OF_ASC_NODE":39.1531,"ARG_OF_PERICENTER":106.1713,"MEAN_ANOMALY":253.9596,"EPHEMERIS_TYPE":0,"CLASSIFICATION_TYPE":"U","NORAD_CAT_ID":47267,"ELEMENT_SET_NO":999,"REV_AT_EPOCH":23261,"BSTAR":-0.0010836,"MEAN_MOTION_DOT":-3.77e-6,"MEAN_MOTION_DDOT":0},{"OBJECT_NAME":"ONEWEB-0122","OBJECT_ID":"2020-100L","EPOCH":"2025-10-16T00:35:47.696640","MEAN_MOTION":13.12441753,"ECCENTRICITY":0.0001946,"INCLINATION":87.8959,"RA_OF_ASC_NODE":39.1569,"ARG_OF_PERICENTER":104.4796,"MEAN_ANOMALY":255.6549,"EPHEMERIS_TYPE":0,"CLASSIFICATION_TYPE":"U","NORAD_CAT_ID":47268,"ELEMENT_SET_NO":999,"REV_AT_EPOCH":23252,"BSTAR":-0.0012675,"MEAN_MOTION_DOT":-4.43e-6,"MEAN_MOTION_DDOT":0},{"OBJECT_NAME":"ONEWEB-0123","OBJECT_ID":"2020-100M","EPOCH":"2025-10-16T00:28:59.899008","MEAN_MOTION":13.12441364,"ECCENTRICITY":0.0001777,"INCLINATION":87.8963,"RA_OF_ASC_NODE":39.1857,"ARG_OF_PERICENTER":97.7632,"MEAN_ANOMALY":262.3698,"EPHEMERIS_TYPE":0,"CLASSIFICATION_TYPE":"U","NORAD_CAT_ID":47269,"ELEMENT_SET_NO":999,"REV_AT_EPOCH":23266,"BSTAR":-0.0010358,"MEAN_MOTION_DOT":-3.6e-6,"MEAN_MOTION_DDOT":0},{"OBJECT_NAME":"ONEWEB-0124","OBJECT_ID":"2020-100N","EPOCH":"2025-10-16T00:12:39.047328","MEAN_MOTION":13.12441964,"ECCENTRICITY":0.0001541,"INCLINATION":87.8963,"RA_OF_ASC_NODE":39.1909,"ARG_OF_PERICENTER":102.1742,"MEAN_ANOMALY":257.956,"EPHEMERIS_TYPE":0,"CLASSIFICATION_TYPE":"U","NORAD_CAT_ID":47270,"ELEMENT_SET_NO":999,"REV_AT_EPOCH":23254,"BSTAR":0.00031459,"MEAN_MOTION_DOT":1.26e-6,"MEAN_MOTION_DDOT":0}]
